GSAT0101 (GALILEO-PFM)  
1 37846U 11060A   24211.95732968 -.00000099  00000+0  00000+0 0  9992
2 37846  57.1298   0.3779 0002371  66.7048 293.3181  1.70475789 79407
GSAT0102 (GALILEO-FM2)  
1 37847U 11060B   24212.46461786 -.00000101  00000+0  00000+0 0  9991
2 37847  57.1303   0.3643 0001810   9.9905 346.9697  1.70475269 79414
GSAT0103 (GALILEO-FM3)  
1 38857U 12055A   24210.23691864 -.00000026  00000+0  00000+0 0  9999
2 38857  55.4225 120.4775 0003938 282.7069  77.2659  1.70473537 73260
GSAT0201 (GALILEO 5)    
1 40128U 14050A   24211.12877022 -.00000090  00000+0  00000+0 0  9992
2 40128  49.6157 301.3783 1612518 152.9050 216.5486  1.85519383 65556
GSAT0202 (GALILEO 6)    
1 40129U 14050B   24211.38690995 -.00000088  00000+0  00000+0 0  9990
2 40129  49.6321 300.4452 1611545 153.7138 215.4819  1.85520062 67723
GSAT0203 (GALILEO 7)    
1 40544U 15017A   24210.56334516 -.00000094  00000+0  00000+0 0  9995
2 40544  56.9246   0.3440 0002393 233.6846 126.2934  1.70475964 57463
GSAT0204 (GALILEO 8)    
1 40545U 15017B   24210.81763837 -.00000095  00000+0  00000+0 0  9997
2 40545  56.9310   0.3527 0002672 211.8422 148.1415  1.70475602 20512
GSAT0205 (GALILEO 9)    
1 40889U 15045A   24209.41262184  .00000056  00000+0  00000+0 0  9998
2 40889  55.2009 240.6579 0002831   9.2578 350.8089  1.70473605 55253
GSAT0206 (GALILEO 10)   
1 40890U 15045B   24211.39304449  .00000062  00000+0  00000+0 0  9998
2 40890  55.1993 240.5984 0001576 324.2254  35.8296  1.70473444 55319
GSAT0209 (GALILEO 12)   
1 41174U 15079A   24210.38961383 -.00000027  00000+0  00000+0 0  9997
2 41174  55.4420 120.1829 0005228 310.5837  49.3875  1.70473697 53037
GSAT0208 (GALILEO 11)   
1 41175U 15079B   24209.43628183 -.00000018  00000+0  00000+0 0  9990
2 41175  55.4395 120.2070 0003900 324.9449  35.0500  1.70473768 53431
GSAT0211 (GALILEO 14)   
1 41549U 16030A   24211.90532389  .00000063  00000+0  00000+0 0  9999
2 41549  55.3473 240.6001 0003269 308.7851  51.2530  1.70473598 50956
GSAT0210 (GALILEO 13)   
1 41550U 16030B   24184.62718941  .00000039  00000+0  00000+0 0  9992
2 41550  55.3572 241.3529 0003113 263.9843  96.0701  1.70473946 50484
GSAT0207 (GALILEO 15)   
1 41859U 16069A   24211.26985809 -.00000036  00000+0  00000+0 0  9994
2 41859  55.1067 120.1500 0004250 313.1263  46.8512  1.70473732 47890
GSAT0212 (GALILEO 16)   
1 41860U 16069B   24211.12410821 -.00000034  00000+0  00000+0 0  9996
2 41860  55.1043 120.1503 0003278 345.5184  14.4857  1.70473871 47920
GSAT0213 (GALILEO 17)   
1 41861U 16069C   24210.31949101 -.00000027  00000+0  00000+0 0  9997
2 41861  55.1066 120.1796 0004098 292.4903  67.4830  1.70474381 47779
GSAT0214 (GALILEO 18)   
1 41862U 16069D   24212.22443828 -.00000042  00000+0  00000+0 0  9992
2 41862  55.1057 120.1201 0002899 300.1987  59.7833  1.70473890 47936
GSAT0215 (GALILEO 19)   
1 43055U 17079A   24210.95418365  .00000061  00000+0  00000+0 0  9996
2 43055  55.3252 240.4476 0003490 258.6451 101.3798  1.70474331 41256
GSAT0216 (GALILEO 20)   
1 43056U 17079B   24211.24585302  .00000062  00000+0  00000+0 0  9997
2 43056  55.3251 240.4394 0004872 269.6714  90.3377  1.70474457 41275
GSAT0217 (GALILEO 21)   
1 43057U 17079C   24211.46634133  .00000063  00000+0  00000+0 0  9990
2 43057  55.3227 240.4315 0004043 284.6466  75.3743  1.70474056 41267
GSAT0218 (GALILEO 22)   
1 43058U 17079D   24212.27298147  .00000064  00000+0  00000+0 0  9993
2 43058  55.3229 240.4073 0005306 266.6973  93.3101  1.70474367 41305
GSAT0221 (GALILEO 25)   
1 43564U 18060A   24209.82761011 -.00000091  00000+0  00000+0 0  9999
2 43564  57.3047   0.3746 0002151 271.3781  88.5976  1.70475874 37420
GSAT0222 (GALILEO 26)   
1 43565U 18060B   24211.21935981 -.00000096  00000+0  00000+0 0  9990
2 43565  57.3083   0.3391 0002664 214.2384 145.7436  1.70475683 37482
GSAT0219 (GALILEO 23)   
1 43566U 18060C   24212.02775478 -.00000099  00000+0  00000+0 0  9997
2 43566  57.3078   0.3193 0001329 281.4485  78.5341  1.70475981 37470
GSAT0220 (GALILEO 24)   
1 43567U 18060D   24211.07523573 -.00000096  00000+0  00000+0 0  9996
2 43567  57.3074   0.3448 0001656 270.5202  89.4601  1.70475646 37433
GSAT0223 (GALILEO 27)   
1 49809U 21116A   24212.39414021 -.00000101  00000+0  00000+0 0  9997
2 49809  57.2981   0.2033 0002704 174.9619   4.9148  1.70475900 16479
GSAT0224 (GALILEO 28)   
1 49810U 21116B   24210.15758667 -.00000092  00000+0  00000+0 0  9997
2 49810  57.2989   0.2619 0002277 158.9876 200.7782  1.70475773 16457
GSAT0225 (GALILEO 29)   
1 59598U 24079A   24209.87945862 -.00000023  00000+0  00000+0 0  9998
2 59598  54.7219 120.3720 0001409 215.8478 323.9283  1.70473885  1565
GSAT0227 (GALILEO 30)   
1 59600U 24079C   24196.27656079 -.00000001  00000+0  00000+0 0  9996
2 59600  54.7313 120.7617 0190564  98.3279 263.8278  1.70507836  1376
